OBJECT_NAME,OBJECT_ID,EPOCH,MEAN_MOTION,ECCENTRICITY,INCLINATION,RA_OF_ASC_NODE,ARG_OF_PERICENTER,MEAN_ANOMALY,EPHEMERIS_TYPE,CLASSIFICATION_TYPE,NORAD_CAT_ID,ELEMENT_SET_NO,REV_AT_EPOCH,BSTAR,MEAN_MOTION_DOT,MEAN_MOTION_DDOT
GAOFEN-11 01,2018-063A,2026-06-13T22:57:03.896640,15.55195085,.00034966,97.1302,231.8439,11.4487,348.6846,0,U,43585,999,43984,.13419066E-3,.8964E-4,0
ICESAT-2,2018-070A,2026-06-13T21:08:44.489472,15.28230660,.0005866,92.0075,290.0857,113.6554,246.5311,0,U,43613,999,43195,.38508486E-3,.10596E-3,0
HYSIS,2018-096A,2026-06-13T23:07:10.759872,14.78691147,.00018952,97.9847,231.7366,109.7891,250.3525,0,U,43719,999,40694,.19229478E-3,.1358E-4,0
KAZSTSAT,2018-099AB,2026-06-13T19:53:00.888000,14.99856940,.00083182,97.4265,196.9096,78.6190,281.5968,0,U,43783,999,41080,.11727591E-3,.1398E-4,0
SAUDISAT 5A,2018-102A,2026-06-13T22:56:39.741792,15.28017756,.00108148,97.3074,226.5989,139.0500,221.1554,0,U,43831,999,41518,.21244437E-3,.5742E-4,0
SAUDISAT 5B,2018-102C,2026-06-13T23:24:34.904736,15.28276640,.00114739,97.3182,229.6818,141.3481,218.8583,0,U,43833,999,41530,.21318505E-3,.5809E-4,0
GAOFEN-10R,2019-066A,2026-06-13T23:35:08.946816,14.83054659,.00064718,98.0497,118.5387,136.3408,223.8319,0,U,44622,999,36190,.14216997E-3,.1102E-4,0
CARTOSAT-3,2019-081A,2026-06-13T22:19:15.538080,15.19257928,.00128796,97.4311,226.8490,159.0655,201.1110,0,U,44804,999,36297,.1578112E-3,.3265E-4,0
GAOFEN-12 01,2019-082A,2026-06-13T23:17:45.964032,14.80456261,.00023623,97.8100,171.4350,74.3738,285.7735,0,U,44819,999,35361,.53790634E-4,.361E-5,0
CSG-1,2019-092A,2026-06-13T22:42:02.085408,14.82150790,.00014686,97.8888,348.5954,89.1019,271.0363,0,U,44873,999,35099,.56629289E-4,.399E-5,0
NEMO-HD,2020-061F,2026-06-13T22:55:34.889088,15.44534726,.0002409,97.1927,226.9406,84.8962,275.2562,0,U,46277,999,32148,.23880819E-3,.10999E-3,0
SENTINEL-6A,2020-086A,2026-06-13T15:36:12.313728,12.80929977,.0007945,66.0391,142.3988,270.2950,89.7155,0,U,46984,999,25987,.30902342E-4,-.54E-6,0
CAS500-1,2021-022A,2026-06-13T23:15:47.638368,15.20175898,.00039893,97.3912,60.2883,317.9204,42.1725,0,U,47932,999,29027,.30838336E-3,.6611E-4,0
GAOFEN-12 02,2021-026A,2026-06-13T23:33:11.662272,14.80293981,.00035081,97.9927,163.1750,235.3757,124.7124,0,U,48079,999,28128,.51762937E-4,.341E-5,0
PLEIADES NEO 3,2021-034A,2026-06-14T03:31:10.566048,14.81668329,.0001352,97.8935,239.9574,96.4193,263.7174,0,U,48268,999,27720,.13328E-3,.997E-5,0
PLEIADES NEO 4,2021-073E,2026-06-13T21:50:48.664608,14.81684844,.00013969,97.8941,239.7196,87.5676,272.5697,0,U,49070,999,26088,.19598523E-3,.1491E-4,0
LANDSAT 9,2021-088A,2026-06-13T21:36:30.262464,14.57094886,.00014376,98.2281,235.1175,85.5585,274.5777,0,U,49260,999,25052,.76555129E-4,.299E-5,0
CSG-2,2022-008A,2026-06-13T21:53:24.721152,14.82153070,.00014393,97.8884,348.5575,84.6845,275.4532,0,U,51444,999,23610,.8649357E-5,.17E-6,0
GAOFEN-12 03,2022-069A,2026-06-13T22:38:05.224128,14.80030784,.00019396,97.8293,52.8959,105.1397,255.0030,0,U,52912,999,21413,.13553644E-3,.975E-5,0
SWOT,2022-173A,2026-06-13T21:58:38.139744,14.00169254,.00002477,77.6108,39.7266,96.0935,264.0244,0,U,54754,999,17869,.58037679E-4,.83E-6,0
GAOFEN-12 04,2023-123A,2026-06-13T23:02:43.310400,14.80223288,.00017863,97.9127,83.0243,84.4901,275.6515,0,U,57654,999,15215,.12944073E-3,.933E-5,0
PARS 1,2024-039Q,2026-06-13T22:45:19.497312,15.45664750,.00113266,97.4814,145.7658,121.4698,238.7659,0,U,59065,999,12814,.24452281E-3,.1173E-3,0
RESURS-P 4,2024-061A,2026-06-13T22:22:29.804160,15.32114729,.00019231,97.2752,112.8877,130.2695,229.8716,0,U,59371,999,12326,.10220562E-3,.3093E-4,0
LEGION 1,2024-081A,2026-06-13T22:16:35.470848,15.16646538,.00098371,97.5022,242.8196,28.8362,331.3413,0,U,59625,999,11704,.18070438E-3,.3471E-4,0
LEGION 2,2024-081B,2026-06-13T21:24:41.476608,15.16625597,.00110804,97.5023,242.8816,355.7100,4.4036,0,U,59626,999,11704,.21258003E-3,.4094E-4,0
ALOS-4 (DAICHI-4),2024-123A,2026-06-13T21:53:28.703328,14.79470192,.0001586,97.9244,262.1319,97.9018,262.2373,0,U,60182,999,10539,.19503089E-3,.1405E-4,0
LEGION 3,2024-146A,2026-06-13T23:14:01.121856,15.16017168,.00072763,45.0025,47.8192,151.2491,208.8790,0,U,60452,999,10153,.19327352E-3,.3516E-4,0
LEGION 4,2024-146B,2026-06-13T21:43:32.662560,15.16007944,.00140363,44.9996,140.0665,291.2266,68.7113,0,U,60453,999,10037,.19204541E-3,.3495E-4,0
SENTINEL-2C,2024-157A,2026-06-13T19:34:53.887872,14.30816912,.00010801,98.5692,239.6455,79.7053,280.4251,0,U,60989,999,9250,.50483638E-4,.89E-6,0
IONOSFERA-M 1,2024-199A,2026-06-13T21:19:24.036096,14.22753703,.00018591,98.7177,38.0955,114.7120,245.4251,0,U,61735,999,12723,.43259715E-4,.53E-6,0
