GAOFEN-11 01            
1 43585U 18063A   26164.95629510  .00008964  00000+0  13419-3 0  9996
2 43585  97.1302 231.8439 0003496  11.4487 348.6846 15.55195085439847
ICESAT-2                
1 43613U 18070A   26164.88107048  .00010596  00000+0  38508-3 0  9995
2 43613  92.0075 290.0857 0005866 113.6554 246.5311 15.28230660431950
HYSIS                   
1 43719U 18096A   26164.96331898  .00001358  00000+0  19229-3 0  9996
2 43719  97.9847 231.7366 0001895 109.7891 250.3525 14.78691147406949
KAZSTSAT                
1 43783U 18099AB  26164.82848250  .00001398  00000+0  11728-3 0  9990
2 43783  97.4265 196.9096 0008318  78.6190 281.5968 14.99856940410808
SAUDISAT 5A             
1 43831U 18102A   26164.95601553  .00005742  00000+0  21244-3 0  9997
2 43831  97.3074 226.5989 0010814 139.0500 221.1554 15.28017756415185
SAUDISAT 5B             
1 43833U 18102C   26164.97540399  .00005809  00000+0  21319-3 0  9998
2 43833  97.3182 229.6818 0011473 141.3481 218.8583 15.28276640415306
GAOFEN-10R              
1 44622U 19066A   26164.98274244  .00001102  00000+0  14217-3 0  9990
2 44622  98.0497 118.5387 0006471 136.3408 223.8319 14.83054659361905
CARTOSAT-3              
1 44804U 19081A   26164.93004095  .00003265  00000+0  15781-3 0  9998
2 44804  97.4311 226.8490 0012879 159.0655 201.1110 15.19257928362978
GAOFEN-12 01            
1 44819U 19082A   26164.97067088  .00000361  00000+0  53791-4 0  9998
2 44819  97.8100 171.4350 0002362  74.3738 285.7735 14.80456261353611
CSG-1                   
1 44873U 19092A   26164.94585747  .00000399  00000+0  56629-4 0  9997
2 44873  97.8888 348.5954 0001468  89.1019 271.0363 14.82150790350996
NEMO-HD                 
1 46277U 20061F   26164.95526492  .00010999  00000+0  23881-3 0  9998
2 46277  97.1927 226.9406 0002409  84.8962 275.2562 15.44534726321482
SENTINEL-6A             
1 46984U 20086A   26164.65014252 -.00000054  00000+0  30902-4 0  9998
2 46984  66.0391 142.3988 0007945 270.2950  89.7155 12.80929977259873
CAS500-1                
1 47932U 21022A   26164.96930137  .00006611  00000+0  30838-3 0  9997
2 47932  97.3912  60.2883 0003989 317.9204  42.1725 15.20175898290277
GAOFEN-12 02            
1 48079U 21026A   26164.98138498  .00000341  00000+0  51763-4 0  9991
2 48079  97.9927 163.1750 0003508 235.3757 124.7124 14.80293981281281
PLEIADES NEO 3          
1 48268U 21034A   26165.14665007  .00000997  00000+0  13328-3 0  9991
2 48268  97.8935 239.9574 0001352  96.4193 263.7174 14.81668329277209
PLEIADES NEO 4          
1 49070U 21073E   26164.91028547  .00001491  00000+0  19599-3 0  9998
2 49070  97.8941 239.7196 0001396  87.5676 272.5697 14.81684844260885
LANDSAT 9               
1 49260U 21088A   26164.90035026  .00000299  00000+0  76555-4 0  9995
2 49260  98.2281 235.1175 0001437  85.5585 274.5777 14.57094886250523
CSG-2                   
1 51444U 22008A   26164.91209168  .00000017  00000+0  86494-5 0  9998
2 51444  97.8884 348.5575 0001439  84.6845 275.4532 14.82153070236104
GAOFEN-12 03            
1 52912U 22069A   26164.94311602  .00000975  00000+0  13554-3 0  9994
2 52912  97.8293  52.8959 0001939 105.1397 255.0030 14.80030784214136
SWOT                    
1 54754U 22173A   26164.91571921  .00000083  00000+0  58038-4 0  9992
2 54754  77.6108  39.7266 0000247  96.0935 264.0244 14.00169254178699
GAOFEN-12 04            
1 57654U 23123A   26164.96022350  .00000933  00000+0  12944-3 0  9991
2 57654  97.9127  83.0243 0001786  84.4901 275.6515 14.80223288152155
PARS 1                  
1 59065U 24039Q   26164.94814233  .00011730  00000+0  24452-3 0  9997
2 59065  97.4814 145.7658 0011326 121.4698 238.7659 15.45664750128149
RESURS-P 4              
1 59371U 24061A   26164.93228940  .00003093  00000+0  10221-3 0  9997
2 59371  97.2752 112.8877 0001923 130.2695 229.8716 15.32114729123268
LEGION 1                
1 59625U 24081A   26164.92818832  .00003471  00000+0  18070-3 0  9995
2 59625  97.5022 242.8196 0009837  28.8362 331.3413 15.16646538117048
LEGION 2                
1 59626U 24081B   26164.89214672  .00004094  00000+0  21258-3 0  9998
2 59626  97.5023 242.8816 0011080 355.7100   4.4036 15.16625597117045
ALOS-4 (DAICHI-4)       
1 60182U 24123A   26164.91213777  .00001405  00000+0  19503-3 0  9995
2 60182  97.9244 262.1319 0001586  97.9018 262.2373 14.79470192105399
LEGION 3                
1 60452U 24146A   26164.96806854  .00003516  00000+0  19327-3 0  9998
2 60452  45.0025  47.8192 0007276 151.2491 208.8790 15.16017168101531
LEGION 4                
1 60453U 24146B   26164.90523915  .00003495  00000+0  19205-3 0  9998
2 60453  44.9996 140.0665 0014036 291.2266  68.7113 15.16007944100379
SENTINEL-2C             
1 60989U 24157A   26164.81590148  .00000089  00000+0  50484-4 0  9997
2 60989  98.5692 239.6455 0001080  79.7053 280.4251 14.30816912 92500
IONOSFERA-M 1           
1 61735U 24199A   26164.88847264  .00000053  00000+0  43260-4 0  9999
2 61735  98.7177  38.0955 0001859 114.7120 245.4251 14.22753703127234
